[{"OBJECT_NAME":"IRIDE FM6","OBJECT_ID":"2025-276AL","EPOCH":"2026-03-09T18:13:54.633504","MEAN_MOTION":15.19819597,"ECCENTRICITY":5.407e-5,"INCLINATION":97.4286,"RA_OF_ASC_NODE":144.1581,"ARG_OF_PERICENTER":341.8424,"MEAN_ANOMALY":18.2792,"EPHEMERIS_TYPE":0,"CLASSIFICATION_TYPE":"U","NORAD_CAT_ID":66700,"ELEMENT_SET_NO":999,"REV_AT_EPOCH":1533,"BSTAR":0.00050046454,"MEAN_MOTION_DOT":0.00010662,"MEAN_MOTION_DDOT":0},{"OBJECT_NAME":"SL-14 R\/B","OBJECT_ID":"2009-003B","EPOCH":"2026-03-09T22:56:16.948608","MEAN_MOTION":15.18255832,"ECCENTRICITY":0.00217716,"INCLINATION":82.3842,"RA_OF_ASC_NODE":305.4853,"ARG_OF_PERICENTER":18.7466,"MEAN_ANOMALY":341.4564,"EPHEMERIS_TYPE":0,"CLASSIFICATION_TYPE":"U","NORAD_CAT_ID":33505,"ELEMENT_SET_NO":999,"REV_AT_EPOCH":94237,"BSTAR":9.9679257e-5,"MEAN_MOTION_DOT":2.085e-5,"MEAN_MOTION_DDOT":0}]
